[{"OBJECT_NAME":"PADRE","OBJECT_ID":"2025-135AH","EPOCH":"2026-03-09T21:49:33.195936","MEAN_MOTION":14.92114701,"ECCENTRICITY":0.00013867,"INCLINATION":97.759,"RA_OF_ASC_NODE":183.9613,"ARG_OF_PERICENTER":187.9932,"MEAN_ANOMALY":172.1266,"EPHEMERIS_TYPE":0,"CLASSIFICATION_TYPE":"U","NORAD_CAT_ID":64559,"ELEMENT_SET_NO":999,"REV_AT_EPOCH":3904,"BSTAR":0.00028627052,"MEAN_MOTION_DOT":2.854e-5,"MEAN_MOTION_DDOT":0},{"OBJECT_NAME":"UK-DMC","OBJECT_ID":"2003-042D","EPOCH":"2026-03-09T11:57:51.003072","MEAN_MOTION":14.8677093,"ECCENTRICITY":0.0054153,"INCLINATION":98.0812,"RA_OF_ASC_NODE":255.9431,"ARG_OF_PERICENTER":168.0294,"MEAN_ANOMALY":192.2222,"EPHEMERIS_TYPE":0,"CLASSIFICATION_TYPE":"U","NORAD_CAT_ID":27942,"ELEMENT_SET_NO":999,"REV_AT_EPOCH":20795,"BSTAR":0.00022518854,"MEAN_MOTION_DOT":1.999e-5,"MEAN_MOTION_DDOT":0}]
